[{"OBJECT_NAME":"STARLINK-11551 [DTC]","OBJECT_ID":"2025-019M","EPOCH":"2026-03-09T16:00:03.000096","MEAN_MOTION":15.70788907,"ECCENTRICITY":0.00015534,"INCLINATION":43.0004,"RA_OF_ASC_NODE":306.0512,"ARG_OF_PERICENTER":253.3269,"MEAN_ANOMALY":259.197,"EPHEMERIS_TYPE":0,"CLASSIFICATION_TYPE":"U","NORAD_CAT_ID":62840,"ELEMENT_SET_NO":999,"REV_AT_EPOCH":599,"BSTAR":0.00048383764,"MEAN_MOTION_DOT":0.00061965,"MEAN_MOTION_DDOT":0},{"OBJECT_NAME":"COSMOS 1408 DEB","OBJECT_ID":"1982-092SW","EPOCH":"2026-03-09T18:18:30.050784","MEAN_MOTION":15.71290453,"ECCENTRICITY":0.00149584,"INCLINATION":82.612,"RA_OF_ASC_NODE":337.7981,"ARG_OF_PERICENTER":124.2456,"MEAN_ANOMALY":236.0226,"EPHEMERIS_TYPE":0,"CLASSIFICATION_TYPE":"U","NORAD_CAT_ID":50058,"ELEMENT_SET_NO":999,"REV_AT_EPOCH":24167,"BSTAR":0.00037213581,"MEAN_MOTION_DOT":0.00047626,"MEAN_MOTION_DDOT":0}]
